SatCatId,ObjectName,LaunchYear,OrbitalPeriod,LaunchMass,StatusCode,Inclination,Status,UcsData,OrbitClassEstimated,LaunchSiteCountry,Owner,UseType,Purpose,LaunchVehicleClass,TLE1,TLE2,MeanMotion,Eccentricity,OrbitClass
35866,STERKH 2,2009,101.16,-1.0,-,98.61,Inactive,0,LEO,Kazakhstan,Russia/USSR,Unknown,Unknown,Unknown,1 35866U 09049B   24173.52440704  .00000188  00000+0  10177-3 0  9998,2 35866  98.6100 134.4801 0002360 208.0257 152.0795 14.23472927766560,14.23472927,0.000236,LEO
19483,GSTAR 3,1988,1436.09,-1.0,UNK,12.32,Inactive,0,GSO,French Guiana,USA,Unknown,Unknown,Unknown,1 19483U 88081A   24173.42806234 -.00000090  00000+0  00000+0 0  9994,2 19483  12.3189 324.1642 0009157 178.2495 176.4651  1.00272601127314,1.00272601,0.0009157,GSO
35868,TATIANA 2,2009,101.16,-1.0,-,98.61,Inactive,0,LEO,Kazakhstan,Russia/USSR,Unknown,Unknown,Unknown,1 35868U 09049D   24173.43811592  .00000233  00000+0  12119-3 0  9996,2 35868  98.6142 134.8673 0003332 204.8462 155.2557 14.23542661766408,14.23542661,0.0003332,LEO
35869,UGATUSAT,2009,101.21,-1.0,-,98.63,Inactive,0,LEO,Kazakhstan,Russia/USSR,Unknown,Unknown,Unknown,1 35869U 09049E   24173.83454785  .00000128  00000+0  76276-4 0  9996,2 35869  98.6335 134.3119 0003394 236.6553 123.4301 14.22820204766343,14.22820204,0.0003394,LEO
19484,SBS 5,1988,1442.96,-1.0,UNK,14.44,Inactive,0,GSO,French Guiana,USA,Unknown,Unknown,Unknown,1 19484U 88081B   24173.23742804  .00000009  00000+0  00000+0 0  9995,2 19484  14.4364   6.3402 0002778 323.4099  41.6352  0.99795160 39222,0.9979516,0.0002778,GSO
35871,BLITS,2009,101.27,-1.0,-,98.66,Inactive,0,LEO,Kazakhstan,Russia/USSR,Unknown,Unknown,Unknown,1 35871U 09049G   24173.42576733  .00000030  00000+0  33184-4 0  9995,2 35871  98.6591 133.4719 0002244 256.7530 103.3397 14.21991843765323,14.21991843,0.0002244,LEO
11296,COSMOS 1081,1979,114.53,-1.0,UNK,74.03,Inactive,0,LEO,Russia,Russia/USSR,Unknown,Unknown,Unknown,1 11296U 79024A   24173.73111019 -.00000006  00000+0  61448-4 0  9994,2 11296  74.0343 281.7292 0038864  92.8207  18.9469 12.57273485 78039,12.57273485,0.0038864,LEO
11297,COSMOS 1082,1979,114.75,-1.0,UNK,74.04,Inactive,0,LEO,Russia,Russia/USSR,Unknown,Unknown,Unknown,1 11297U 79024B   24173.59272411  .00000003  00000+0  11925-3 0  9993,2 11297  74.0355  19.5693 0026983 214.9615 206.1017 12.54945359673746,12.54945359,0.0026983,LEO
11298,COSMOS 1083,1979,114.96,-1.0,UNK,74.03,Inactive,0,LEO,Russia,Russia/USSR,Unknown,Unknown,Unknown,1 11298U 79024C   24173.29316719 -.00000023  00000+0 -47159-4 0  9994,2 11298  74.0331 115.3416 0014978 318.4252 196.3665 12.52597948 69986,12.52597948,0.0014978,LEO
11299,COSMOS 1084,1979,115.16,-1.0,UNK,74.03,Inactive,0,LEO,Russia,Russia/USSR,Unknown,Unknown,Unknown,1 11299U 79024D   24173.58141425  .00000014  00000+0  19627-3 0  9993,2 11299  74.0312 204.0972 0001352 140.5577 337.1847 12.50474887 66400,12.50474887,0.0001352,LEO
11300,COSMOS 1085,1979,115.64,-1.0,UNK,74.03,Inactive,0,LEO,Russia,Russia/USSR,Unknown,Unknown,Unknown,1 11300U 79024E   24173.11610406  .00000005  00000+0  14155-3 0  9996,2 11300  74.0348  54.5220 0024256 105.5818   6.4189 12.45276427 57907,12.45276427,0.0024256,LEO
11301,COSMOS 1086,1979,115.4,-1.0,UNK,74.03,Inactive,0,LEO,Russia,Russia/USSR,Unknown,Unknown,Unknown,1 11301U 79024F   24173.57101503 -.00000021  00000+0 -33301-4 0  9995,2 11301  74.0349 308.7533 0010717 358.5029  76.7225 12.47866307 62137,12.47866307,0.0010717,LEO
11302,COSMOS 1087,1979,115.86,-1.0,UNK,74.03,Inactive,0,LEO,Russia,Russia/USSR,Unknown,Unknown,Unknown,1 11302U 79024G   24173.44886615 -.00000025  00000+0 -70405-4 0  9996,2 11302  74.0311 151.8163 0037775 227.3557 254.3495 12.42862229 53862,12.42862229,0.0037775,LEO
11303,COSMOS 1088,1979,116.12,-1.0,UNK,74.03,Inactive,0,LEO,Russia,Russia/USSR,Unknown,Unknown,Unknown,1 11303U 79024H   24173.58121209  .00000004  00000+0  14260-3 0  9994,2 11303  74.0339 261.6062 0051976 343.7190 122.5836 12.40144824 49521,12.40144824,0.0051976,LEO
27683,INTELSAT 907 (IS-907),2003,1452.2,-1.0,-,3.86,Inactive,0,GSO,French Guiana,INTELSAT,Unknown,Unknown,Ariane,1 27683U 03007A   24173.58384407 -.00000199  00000+0  00000+0 0  9990,2 27683   3.8675  81.0041 0010023  38.3931 118.5525  0.99159381 77998,0.99159381,0.0010023,GSO
11308,COSMOS 1089,1979,104.7,-1.0,UNK,82.98,Inactive,0,LEO,Russia,Russia/USSR,Unknown,Unknown,Unknown,1 11308U 79026A   24173.57919687  .00000060  00000+0  46277-4 0  9991,2 11308  82.9754 330.4769 0021226 242.2340 187.5595 13.75309294269642,13.75309294,0.0021226,LEO
19501,COSMOS 1970 [GLONASS],1988,675.73,-1.0,-,65.61,Inactive,0,MEO,Kazakhstan,Russia/USSR,Unknown,Unknown,Unknown,1 19501U 88085A   24172.85919817 -.00000046  00000+0  00000+0 0  9998,2 19501  65.6130 339.1001 0009862  44.0231 299.2187  2.13102032278295,2.13102032,0.0009862,MEO
19502,COSMOS 1971 [GLONASS],1988,675.73,-1.0,-,65.61,Inactive,0,MEO,Kazakhstan,Russia/USSR,Unknown,Unknown,Unknown,1 19502U 88085B   24169.09007660 -.00000050  00000+0  00000+0 0  9990,2 19502  65.6074 339.1501 0022380  17.0322 161.5461  2.13101685263797,2.13101685,0.002238,MEO
19503,COSMOS 1972 [GLONASS],1988,675.73,-1.0,-,65.64,Inactive,0,MEO,Kazakhstan,Russia/USSR,Unknown,Unknown,Unknown,1 19503U 88085C   24172.55771559 -.00000046  00000+0  00000+0 0  9996,2 19503  65.6414 339.4657 0003979 210.0183 203.0361  2.13102219278155,2.13102219,0.0003979,MEO
19508,SAKURA-3B (CS-3B),1988,1451.25,-1.0,-,14.99,Inactive,0,GSO,Japan,Japan,Unknown,Unknown,Unknown,1 19508U 88086A   24173.58330595 -.00000223  00000+0  00000+0 0  9994,2 19508  14.9864 359.1570 0001565 358.0005 238.3437  0.99223975130050,0.99223975,0.0001565,GSO
11320,COSMOS 1091,1979,104.74,-1.0,UNK,82.92,Inactive,0,LEO,Russia,Russia/USSR,Unknown,Unknown,Unknown,1 11320U 79028A   24173.55471001  .00000051  00000+0  37398-4 0  9992,2 11320  82.9233 312.1852 0031107  28.9612  55.9716 13.74806295267427,13.74806295,0.0031107,LEO
3129,COSMOS 203,1968,109.23,-1.0,UNK,74.05,Inactive,0,LEO,Russia,Russia/USSR,Unknown,Unknown,Unknown,1 03129U 68011A   24173.16415010 -.00000187  00000+0 -42948-3 0  9993,2 03129  74.0520 104.4613 0011545  88.3011  19.5020 13.18269348710304,13.18269348,0.0011545,LEO
3133,OPS 7034 (TRANSIT 18),1968,106.56,-1.0,UNK,90.02,Inactive,0,LEO,USA,USA,Unknown,Unknown,Unknown,1 03133U 68012A   24173.34773458  .00000143  00000+0  20382-3 0  9990,2 03133  90.0226 272.4471 0072275 293.5207 135.7476 13.51363093496331,13.51363093,0.0072275,LEO
11326,COSMOS 1092,1979,104.69,-1.0,UNK,82.95,Inactive,0,LEO,Russia,Russia/USSR,Unknown,Unknown,Unknown,1 11326U 79030A   24173.59556946  .00000084  00000+0  71069-4 0  9996,2 11326  82.9483 223.3400 0028327 329.2844 140.9207 13.75530687502631,13.75530687,0.0028327,LEO
27714,INSAT-3A,2003,1442.87,-1.0,-,7.07,Inactive,0,GSO,French Guiana,India,Unknown,Unknown,Unknown,1 27714U 03013A   24173.57684978 -.00000234  00000+0  00000+0 0  9997,2 27714   7.0680  68.6928 0010025 330.6078 182.3349  0.99800607 77483,0.99800607,0.0010025,GSO
19531,NOAA 11,1988,101.73,-1.0,-,98.52,Inactive,0,LEO,USA,USA,Unknown,Unknown,Unknown,1 19531U 88089A   24173.52847493  .00000073  00000+0  58687-4 0  9998,2 19531  98.5182 135.9022 0010292 217.8283 142.2170 14.15543169844801,14.15543169,0.0010292,LEO
11343,RADUGA 5,1979,1435.93,-1.0,-,7.11,Inactive,0,GSO,Kazakhstan,Russia/USSR,Unknown,Unknown,Unknown,1 11343U 79035A   24173.61366678 -.00000156  00000+0  00000+0 0  9997,2 11343   7.1086 290.5512 0006194 192.3026  92.7275  1.00283392122075,1.00283392,0.0006194,GSO
3158,COSMOS 209,1968,103.02,-1.0,UNK,65.33,Inactive,0,LEO,Kazakhstan,Russia/USSR,Unknown,Unknown,Unknown,1 03158U 68023A   24173.68948693 -.00000039  00000+0  35541-4 0  9990,2 03158  65.3326 293.7845 0039252 198.3226 161.6432 13.97838586870022,13.97838586,0.0039252,LEO
11353,OPS 6392 (FLTSATCOM 2),1979,1461.28,-1.0,-,9.33,Inactive,0,GSO,USA,USA,Unknown,Unknown,Unknown,1 11353U 79038A   24173.36265038 -.00000048  00000+0  00000+0 0  9991,2 11353   9.3246 307.9193 0015707  78.5267 300.5929  0.98543215163236,0.98543215,0.0015707,GSO
35934,UWE-2,2009,98.77,-1.0,-,98.48,Inactive,0,LEO,India,Germany,Unknown,Unknown,Unknown,1 35934U 09051D   24173.59768975  .00000985  00000+0  22551-3 0  9991,2 35934  98.4798  54.3735 0005853 340.7334  19.3642 14.57880680783036,14.5788068,0.0005853,LEO
35936,RUBIN 9.1 & RUBIN 9.2,2009,99.81,-1.0,-,98.27,Inactive,0,LEO,India,Germany,Unknown,Unknown,Unknown,1 35936U 09051F   24173.77783811  .00000366  00000+0  12061-3 0  9997,2 35936  98.2708 105.2555 0055555  96.5915 264.1604 14.42687353775932,14.42687353,0.0055555,LEO
19554,COSMOS 1974,1988,717.78,-1.0,UNK,69.97,Inactive,0,MEO,Russia,Russia/USSR,Unknown,Unknown,Molniya,1 19554U 88092A   24172.94227509  .00000189  00000+0  00000+0 0  9991,2 19554  69.9725 210.4286 4343869  84.8355 322.0980  2.00609823261572,2.00609823,0.4343869,MEO
3173,OV1-13,1968,198.47,-1.0,UNK,99.93,Inactive,0,MEO,USA,USA,Unknown,Unknown,Unknown,1 03173U 68026A   24173.46387544  .00000064  00000+0  10565-3 0  9993,2 03173  99.9331 159.8552 3839066 151.0593 237.2252  7.25543631485550,7.25543631,0.3839066,MEO
3174,OV1-14,1968,206.75,-1.0,UNK,100.01,Inactive,0,MEO,USA,USA,Unknown,Unknown,Unknown,1 03174U 68026B   24173.45064376  .00000216  00000+0  44041-3 0  9993,2 03174 100.0148 138.9070 3981773 120.4387 358.6601  6.96493687425774,6.96493687,0.3981773,MEO
11378,COSMOS 1104,1979,104.66,-1.0,UNK,82.95,Inactive,0,LEO,Russia,Russia/USSR,Unknown,Unknown,Unknown,1 11378U 79046A   24173.70390803  .00000078  00000+0  64542-4 0  9992,2 11378  82.9463 238.5757 0034082  74.0124  38.7510 13.75899752262006,13.75899752,0.0034082,LEO
19573,COSMOS 1975,1988,95.08,-1.0,UNK,82.53,Inactive,0,LEO,Russia,Russia/USSR,Unknown,Unknown,Unknown,1 19573U 88093A   24173.57527006  .00005736  00000+0  30933-3 0  9993,2 19573  82.5266  19.8023 0014247 198.6630 161.4082 15.14496079924182,15.14496079,0.0014247,LEO
